[Satellite]
VERSION=1.1
NAME=AMC-11 (GE-11)
NICKNAME=AMC-11 (GE-11)
TLE1=1 28252U 04017A   15052.52270341  .00000045  00000-0  00000+0 0  9996
TLE2=2 28252   0.0640 301.3184 0002591  44.1458 222.7753  1.00273650 39356
